{
"type": "FeatureCollection",
"name": "osm_hotspot_grid",
"crs": { "type": "name", "properties": { "name": "urn:ogc:def:crs:OGC:1.3:CRS84" } },
"features": [
{ "type": "Feature", "properties": { "grid_lat": 23.0, "grid_lon": 86.0, "event_count": 194 }, "geometry": { "type": "Polygon", "coordinates": [ [ [ 87.0, 23.0 ], [ 87.0, 24.0 ], [ 86.0, 24.0 ], [ 86.0, 23.0 ], [ 87.0, 23.0 ] ] ] } },
{ "type": "Feature", "properties": { "grid_lat": 15.0, "grid_lon": 76.0, "event_count": 122 }, "geometry": { "type": "Polygon", "coordinates": [ [ [ 77.0, 15.0 ], [ 77.0, 16.0 ], [ 76.0, 16.0 ], [ 76.0, 15.0 ], [ 77.0, 15.0 ] ] ] } },
{ "type": "Feature", "properties": { "grid_lat": 20.0, "grid_lon": 85.0, "event_count": 96 }, "geometry": { "type": "Polygon", "coordinates": [ [ [ 86.0, 20.0 ], [ 86.0, 21.0 ], [ 85.0, 21.0 ], [ 85.0, 20.0 ], [ 86.0, 20.0 ] ] ] } },
{ "type": "Feature", "properties": { "grid_lat": 21.0, "grid_lon": 83.0, "event_count": 78 }, "geometry": { "type": "Polygon", "coordinates": [ [ [ 84.0, 21.0 ], [ 84.0, 22.0 ], [ 83.0, 22.0 ], [ 83.0, 21.0 ], [ 84.0, 21.0 ] ] ] } },
{ "type": "Feature", "properties": { "grid_lat": 23.0, "grid_lon": 85.0, "event_count": 70 }, "geometry": { "type": "Polygon", "coordinates": [ [ [ 86.0, 23.0 ], [ 86.0, 24.0 ], [ 85.0, 24.0 ], [ 85.0, 23.0 ], [ 86.0, 23.0 ] ] ] } },
{ "type": "Feature", "properties": { "grid_lat": 23.0, "grid_lon": 87.0, "event_count": 51 }, "geometry": { "type": "Polygon", "coordinates": [ [ [ 88.0, 23.0 ], [ 88.0, 24.0 ], [ 87.0, 24.0 ], [ 87.0, 23.0 ], [ 88.0, 23.0 ] ] ] } },
{ "type": "Feature", "properties": { "grid_lat": 21.0, "grid_lon": 72.0, "event_count": 42 }, "geometry": { "type": "Polygon", "coordinates": [ [ [ 73.0, 21.0 ], [ 73.0, 22.0 ], [ 72.0, 22.0 ], [ 72.0, 21.0 ], [ 73.0, 21.0 ] ] ] } },
{ "type": "Feature", "properties": { "grid_lat": 20.0, "grid_lon": 86.0, "event_count": 40 }, "geometry": { "type": "Polygon", "coordinates": [ [ [ 87.0, 20.0 ], [ 87.0, 21.0 ], [ 86.0, 21.0 ], [ 86.0, 20.0 ], [ 87.0, 20.0 ] ] ] } },
{ "type": "Feature", "properties": { "grid_lat": 22.0, "grid_lon": 82.0, "event_count": 39 }, "geometry": { "type": "Polygon", "coordinates": [ [ [ 83.0, 22.0 ], [ 83.0, 23.0 ], [ 82.0, 23.0 ], [ 82.0, 22.0 ], [ 83.0, 22.0 ] ] ] } },
{ "type": "Feature", "properties": { "grid_lat": 9.0, "grid_lon": 78.0, "event_count": 32 }, "geometry": { "type": "Polygon", "coordinates": [ [ [ 79.0, 9.0 ], [ 79.0, 10.0 ], [ 78.0, 10.0 ], [ 78.0, 9.0 ], [ 79.0, 9.0 ] ] ] } },
{ "type": "Feature", "properties": { "grid_lat": 8.0, "grid_lon": 77.0, "event_count": 30 }, "geometry": { "type": "Polygon", "coordinates": [ [ [ 78.0, 8.0 ], [ 78.0, 9.0 ], [ 77.0, 9.0 ], [ 77.0, 8.0 ], [ 78.0, 8.0 ] ] ] } },
{ "type": "Feature", "properties": { "grid_lat": 17.0, "grid_lon": 83.0, "event_count": 29 }, "geometry": { "type": "Polygon", "coordinates": [ [ [ 84.0, 17.0 ], [ 84.0, 18.0 ], [ 83.0, 18.0 ], [ 83.0, 17.0 ], [ 84.0, 17.0 ] ] ] } },
{ "type": "Feature", "properties": { "grid_lat": 20.0, "grid_lon": 84.0, "event_count": 28 }, "geometry": { "type": "Polygon", "coordinates": [ [ [ 85.0, 20.0 ], [ 85.0, 21.0 ], [ 84.0, 21.0 ], [ 84.0, 20.0 ], [ 85.0, 20.0 ] ] ] } },
{ "type": "Feature", "properties": { "grid_lat": 21.0, "grid_lon": 84.0, "event_count": 26 }, "geometry": { "type": "Polygon", "coordinates": [ [ [ 85.0, 21.0 ], [ 85.0, 22.0 ], [ 84.0, 22.0 ], [ 84.0, 21.0 ], [ 85.0, 21.0 ] ] ] } },
{ "type": "Feature", "properties": { "grid_lat": 9.0, "grid_lon": 77.0, "event_count": 26 }, "geometry": { "type": "Polygon", "coordinates": [ [ [ 78.0, 9.0 ], [ 78.0, 10.0 ], [ 77.0, 10.0 ], [ 77.0, 9.0 ], [ 78.0, 9.0 ] ] ] } },
{ "type": "Feature", "properties": { "grid_lat": 10.0, "grid_lon": 77.0, "event_count": 25 }, "geometry": { "type": "Polygon", "coordinates": [ [ [ 78.0, 10.0 ], [ 78.0, 11.0 ], [ 77.0, 11.0 ], [ 77.0, 10.0 ], [ 78.0, 10.0 ] ] ] } },
{ "type": "Feature", "properties": { "grid_lat": 21.0, "grid_lon": 85.0, "event_count": 24 }, "geometry": { "type": "Polygon", "coordinates": [ [ [ 86.0, 21.0 ], [ 86.0, 22.0 ], [ 85.0, 22.0 ], [ 85.0, 21.0 ], [ 86.0, 21.0 ] ] ] } },
{ "type": "Feature", "properties": { "grid_lat": 22.0, "grid_lon": 84.0, "event_count": 22 }, "geometry": { "type": "Polygon", "coordinates": [ [ [ 85.0, 22.0 ], [ 85.0, 23.0 ], [ 84.0, 23.0 ], [ 84.0, 22.0 ], [ 85.0, 22.0 ] ] ] } },
{ "type": "Feature", "properties": { "grid_lat": 14.0, "grid_lon": 79.0, "event_count": 22 }, "geometry": { "type": "Polygon", "coordinates": [ [ [ 80.0, 14.0 ], [ 80.0, 15.0 ], [ 79.0, 15.0 ], [ 79.0, 14.0 ], [ 80.0, 14.0 ] ] ] } },
{ "type": "Feature", "properties": { "grid_lat": 22.0, "grid_lon": 86.0, "event_count": 21 }, "geometry": { "type": "Polygon", "coordinates": [ [ [ 87.0, 22.0 ], [ 87.0, 23.0 ], [ 86.0, 23.0 ], [ 86.0, 22.0 ], [ 87.0, 22.0 ] ] ] } },
{ "type": "Feature", "properties": { "grid_lat": 22.0, "grid_lon": 87.0, "event_count": 20 }, "geometry": { "type": "Polygon", "coordinates": [ [ [ 88.0, 22.0 ], [ 88.0, 23.0 ], [ 87.0, 23.0 ], [ 87.0, 22.0 ], [ 88.0, 22.0 ] ] ] } },
{ "type": "Feature", "properties": { "grid_lat": 19.0, "grid_lon": 82.0, "event_count": 19 }, "geometry": { "type": "Polygon", "coordinates": [ [ [ 83.0, 19.0 ], [ 83.0, 20.0 ], [ 82.0, 20.0 ], [ 82.0, 19.0 ], [ 83.0, 19.0 ] ] ] } },
{ "type": "Feature", "properties": { "grid_lat": 14.0, "grid_lon": 77.0, "event_count": 18 }, "geometry": { "type": "Polygon", "coordinates": [ [ [ 78.0, 14.0 ], [ 78.0, 15.0 ], [ 77.0, 15.0 ], [ 77.0, 14.0 ], [ 78.0, 14.0 ] ] ] } },
{ "type": "Feature", "properties": { "grid_lat": 11.0, "grid_lon": 77.0, "event_count": 18 }, "geometry": { "type": "Polygon", "coordinates": [ [ [ 78.0, 11.0 ], [ 78.0, 12.0 ], [ 77.0, 12.0 ], [ 77.0, 11.0 ], [ 78.0, 11.0 ] ] ] } },
{ "type": "Feature", "properties": { "grid_lat": 22.0, "grid_lon": 69.0, "event_count": 17 }, "geometry": { "type": "Polygon", "coordinates": [ [ [ 70.0, 22.0 ], [ 70.0, 23.0 ], [ 69.0, 23.0 ], [ 69.0, 22.0 ], [ 70.0, 22.0 ] ] ] } },
{ "type": "Feature", "properties": { "grid_lat": 15.0, "grid_lon": 79.0, "event_count": 17 }, "geometry": { "type": "Polygon", "coordinates": [ [ [ 80.0, 15.0 ], [ 80.0, 16.0 ], [ 79.0, 16.0 ], [ 79.0, 15.0 ], [ 80.0, 15.0 ] ] ] } },
{ "type": "Feature", "properties": { "grid_lat": 29.0, "grid_lon": 76.0, "event_count": 17 }, "geometry": { "type": "Polygon", "coordinates": [ [ [ 77.0, 29.0 ], [ 77.0, 30.0 ], [ 76.0, 30.0 ], [ 76.0, 29.0 ], [ 77.0, 29.0 ] ] ] } },
{ "type": "Feature", "properties": { "grid_lat": 18.0, "grid_lon": 73.0, "event_count": 16 }, "geometry": { "type": "Polygon", "coordinates": [ [ [ 74.0, 18.0 ], [ 74.0, 19.0 ], [ 73.0, 19.0 ], [ 73.0, 18.0 ], [ 74.0, 18.0 ] ] ] } },
{ "type": "Feature", "properties": { "grid_lat": 15.0, "grid_lon": 77.0, "event_count": 16 }, "geometry": { "type": "Polygon", "coordinates": [ [ [ 78.0, 15.0 ], [ 78.0, 16.0 ], [ 77.0, 16.0 ], [ 77.0, 15.0 ], [ 78.0, 15.0 ] ] ] } },
{ "type": "Feature", "properties": { "grid_lat": 22.0, "grid_lon": 85.0, "event_count": 16 }, "geometry": { "type": "Polygon", "coordinates": [ [ [ 86.0, 22.0 ], [ 86.0, 23.0 ], [ 85.0, 23.0 ], [ 85.0, 22.0 ], [ 86.0, 22.0 ] ] ] } },
{ "type": "Feature", "properties": { "grid_lat": 23.0, "grid_lon": 84.0, "event_count": 15 }, "geometry": { "type": "Polygon", "coordinates": [ [ [ 85.0, 23.0 ], [ 85.0, 24.0 ], [ 84.0, 24.0 ], [ 84.0, 23.0 ], [ 85.0, 23.0 ] ] ] } },
{ "type": "Feature", "properties": { "grid_lat": 27.0, "grid_lon": 95.0, "event_count": 15 }, "geometry": { "type": "Polygon", "coordinates": [ [ [ 96.0, 27.0 ], [ 96.0, 28.0 ], [ 95.0, 28.0 ], [ 95.0, 27.0 ], [ 96.0, 27.0 ] ] ] } },
{ "type": "Feature", "properties": { "grid_lat": 21.0, "grid_lon": 81.0, "event_count": 15 }, "geometry": { "type": "Polygon", "coordinates": [ [ [ 82.0, 21.0 ], [ 82.0, 22.0 ], [ 81.0, 22.0 ], [ 81.0, 21.0 ], [ 82.0, 21.0 ] ] ] } },
{ "type": "Feature", "properties": { "grid_lat": 15.0, "grid_lon": 78.0, "event_count": 14 }, "geometry": { "type": "Polygon", "coordinates": [ [ [ 79.0, 15.0 ], [ 79.0, 16.0 ], [ 78.0, 16.0 ], [ 78.0, 15.0 ], [ 79.0, 15.0 ] ] ] } },
{ "type": "Feature", "properties": { "grid_lat": 17.0, "grid_lon": 80.0, "event_count": 13 }, "geometry": { "type": "Polygon", "coordinates": [ [ [ 81.0, 17.0 ], [ 81.0, 18.0 ], [ 80.0, 18.0 ], [ 80.0, 17.0 ], [ 81.0, 17.0 ] ] ] } },
{ "type": "Feature", "properties": { "grid_lat": 8.0, "grid_lon": 78.0, "event_count": 12 }, "geometry": { "type": "Polygon", "coordinates": [ [ [ 79.0, 8.0 ], [ 79.0, 9.0 ], [ 78.0, 9.0 ], [ 78.0, 8.0 ], [ 79.0, 8.0 ] ] ] } },
{ "type": "Feature", "properties": { "grid_lat": 10.0, "grid_lon": 79.0, "event_count": 12 }, "geometry": { "type": "Polygon", "coordinates": [ [ [ 80.0, 10.0 ], [ 80.0, 11.0 ], [ 79.0, 11.0 ], [ 79.0, 10.0 ], [ 80.0, 10.0 ] ] ] } },
{ "type": "Feature", "properties": { "grid_lat": 10.0, "grid_lon": 78.0, "event_count": 12 }, "geometry": { "type": "Polygon", "coordinates": [ [ [ 79.0, 10.0 ], [ 79.0, 11.0 ], [ 78.0, 11.0 ], [ 78.0, 10.0 ], [ 79.0, 10.0 ] ] ] } },
{ "type": "Feature", "properties": { "grid_lat": 14.0, "grid_lon": 78.0, "event_count": 11 }, "geometry": { "type": "Polygon", "coordinates": [ [ [ 79.0, 14.0 ], [ 79.0, 15.0 ], [ 78.0, 15.0 ], [ 78.0, 14.0 ], [ 79.0, 14.0 ] ] ] } },
{ "type": "Feature", "properties": { "grid_lat": 22.0, "grid_lon": 83.0, "event_count": 10 }, "geometry": { "type": "Polygon", "coordinates": [ [ [ 84.0, 22.0 ], [ 84.0, 23.0 ], [ 83.0, 23.0 ], [ 83.0, 22.0 ], [ 84.0, 22.0 ] ] ] } },
{ "type": "Feature", "properties": { "grid_lat": 23.0, "grid_lon": 70.0, "event_count": 10 }, "geometry": { "type": "Polygon", "coordinates": [ [ [ 71.0, 23.0 ], [ 71.0, 24.0 ], [ 70.0, 24.0 ], [ 70.0, 23.0 ], [ 71.0, 23.0 ] ] ] } },
{ "type": "Feature", "properties": { "grid_lat": 12.0, "grid_lon": 76.0, "event_count": 9 }, "geometry": { "type": "Polygon", "coordinates": [ [ [ 77.0, 12.0 ], [ 77.0, 13.0 ], [ 76.0, 13.0 ], [ 76.0, 12.0 ], [ 77.0, 12.0 ] ] ] } },
{ "type": "Feature", "properties": { "grid_lat": 18.0, "grid_lon": 79.0, "event_count": 9 }, "geometry": { "type": "Polygon", "coordinates": [ [ [ 80.0, 18.0 ], [ 80.0, 19.0 ], [ 79.0, 19.0 ], [ 79.0, 18.0 ], [ 80.0, 18.0 ] ] ] } },
{ "type": "Feature", "properties": { "grid_lat": 11.0, "grid_lon": 79.0, "event_count": 9 }, "geometry": { "type": "Polygon", "coordinates": [ [ [ 80.0, 11.0 ], [ 80.0, 12.0 ], [ 79.0, 12.0 ], [ 79.0, 11.0 ], [ 80.0, 11.0 ] ] ] } },
{ "type": "Feature", "properties": { "grid_lat": 24.0, "grid_lon": 82.0, "event_count": 8 }, "geometry": { "type": "Polygon", "coordinates": [ [ [ 83.0, 24.0 ], [ 83.0, 25.0 ], [ 82.0, 25.0 ], [ 82.0, 24.0 ], [ 83.0, 24.0 ] ] ] } },
{ "type": "Feature", "properties": { "grid_lat": 13.0, "grid_lon": 78.0, "event_count": 7 }, "geometry": { "type": "Polygon", "coordinates": [ [ [ 79.0, 13.0 ], [ 79.0, 14.0 ], [ 78.0, 14.0 ], [ 78.0, 13.0 ], [ 79.0, 13.0 ] ] ] } },
{ "type": "Feature", "properties": { "grid_lat": 21.0, "grid_lon": 78.0, "event_count": 7 }, "geometry": { "type": "Polygon", "coordinates": [ [ [ 79.0, 21.0 ], [ 79.0, 22.0 ], [ 78.0, 22.0 ], [ 78.0, 21.0 ], [ 79.0, 21.0 ] ] ] } },
{ "type": "Feature", "properties": { "grid_lat": 26.0, "grid_lon": 73.0, "event_count": 6 }, "geometry": { "type": "Polygon", "coordinates": [ [ [ 74.0, 26.0 ], [ 74.0, 27.0 ], [ 73.0, 27.0 ], [ 73.0, 26.0 ], [ 74.0, 26.0 ] ] ] } },
{ "type": "Feature", "properties": { "grid_lat": 22.0, "grid_lon": 70.0, "event_count": 6 }, "geometry": { "type": "Polygon", "coordinates": [ [ [ 71.0, 22.0 ], [ 71.0, 23.0 ], [ 70.0, 23.0 ], [ 70.0, 22.0 ], [ 71.0, 22.0 ] ] ] } },
{ "type": "Feature", "properties": { "grid_lat": 25.0, "grid_lon": 72.0, "event_count": 6 }, "geometry": { "type": "Polygon", "coordinates": [ [ [ 73.0, 25.0 ], [ 73.0, 26.0 ], [ 72.0, 26.0 ], [ 72.0, 25.0 ], [ 73.0, 25.0 ] ] ] } },
{ "type": "Feature", "properties": { "grid_lat": 16.0, "grid_lon": 79.0, "event_count": 6 }, "geometry": { "type": "Polygon", "coordinates": [ [ [ 80.0, 16.0 ], [ 80.0, 17.0 ], [ 79.0, 17.0 ], [ 79.0, 16.0 ], [ 80.0, 16.0 ] ] ] } },
{ "type": "Feature", "properties": { "grid_lat": 13.0, "grid_lon": 76.0, "event_count": 5 }, "geometry": { "type": "Polygon", "coordinates": [ [ [ 77.0, 13.0 ], [ 77.0, 14.0 ], [ 76.0, 14.0 ], [ 76.0, 13.0 ], [ 77.0, 13.0 ] ] ] } },
{ "type": "Feature", "properties": { "grid_lat": 28.0, "grid_lon": 77.0, "event_count": 5 }, "geometry": { "type": "Polygon", "coordinates": [ [ [ 78.0, 28.0 ], [ 78.0, 29.0 ], [ 77.0, 29.0 ], [ 77.0, 28.0 ], [ 78.0, 28.0 ] ] ] } },
{ "type": "Feature", "properties": { "grid_lat": 27.0, "grid_lon": 96.0, "event_count": 5 }, "geometry": { "type": "Polygon", "coordinates": [ [ [ 97.0, 27.0 ], [ 97.0, 28.0 ], [ 96.0, 28.0 ], [ 96.0, 27.0 ], [ 97.0, 27.0 ] ] ] } },
{ "type": "Feature", "properties": { "grid_lat": 24.0, "grid_lon": 73.0, "event_count": 5 }, "geometry": { "type": "Polygon", "coordinates": [ [ [ 74.0, 24.0 ], [ 74.0, 25.0 ], [ 73.0, 25.0 ], [ 73.0, 24.0 ], [ 74.0, 24.0 ] ] ] } },
{ "type": "Feature", "properties": { "grid_lat": 17.0, "grid_lon": 79.0, "event_count": 5 }, "geometry": { "type": "Polygon", "coordinates": [ [ [ 80.0, 17.0 ], [ 80.0, 18.0 ], [ 79.0, 18.0 ], [ 79.0, 17.0 ], [ 80.0, 17.0 ] ] ] } },
{ "type": "Feature", "properties": { "grid_lat": 12.0, "grid_lon": 78.0, "event_count": 5 }, "geometry": { "type": "Polygon", "coordinates": [ [ [ 79.0, 12.0 ], [ 79.0, 13.0 ], [ 78.0, 13.0 ], [ 78.0, 12.0 ], [ 79.0, 12.0 ] ] ] } },
{ "type": "Feature", "properties": { "grid_lat": 15.0, "grid_lon": 73.0, "event_count": 5 }, "geometry": { "type": "Polygon", "coordinates": [ [ [ 74.0, 15.0 ], [ 74.0, 16.0 ], [ 73.0, 16.0 ], [ 73.0, 15.0 ], [ 74.0, 15.0 ] ] ] } },
{ "type": "Feature", "properties": { "grid_lat": 11.0, "grid_lon": 78.0, "event_count": 5 }, "geometry": { "type": "Polygon", "coordinates": [ [ [ 79.0, 11.0 ], [ 79.0, 12.0 ], [ 78.0, 12.0 ], [ 78.0, 11.0 ], [ 79.0, 11.0 ] ] ] } },
{ "type": "Feature", "properties": { "grid_lat": 17.0, "grid_lon": 77.0, "event_count": 5 }, "geometry": { "type": "Polygon", "coordinates": [ [ [ 78.0, 17.0 ], [ 78.0, 18.0 ], [ 77.0, 18.0 ], [ 77.0, 17.0 ], [ 78.0, 17.0 ] ] ] } },
{ "type": "Feature", "properties": { "grid_lat": 18.0, "grid_lon": 74.0, "event_count": 4 }, "geometry": { "type": "Polygon", "coordinates": [ [ [ 75.0, 18.0 ], [ 75.0, 19.0 ], [ 74.0, 19.0 ], [ 74.0, 18.0 ], [ 75.0, 18.0 ] ] ] } },
{ "type": "Feature", "properties": { "grid_lat": 14.0, "grid_lon": 76.0, "event_count": 4 }, "geometry": { "type": "Polygon", "coordinates": [ [ [ 77.0, 14.0 ], [ 77.0, 15.0 ], [ 76.0, 15.0 ], [ 76.0, 14.0 ], [ 77.0, 14.0 ] ] ] } },
{ "type": "Feature", "properties": { "grid_lat": 12.0, "grid_lon": 79.0, "event_count": 4 }, "geometry": { "type": "Polygon", "coordinates": [ [ [ 80.0, 12.0 ], [ 80.0, 13.0 ], [ 79.0, 13.0 ], [ 79.0, 12.0 ], [ 80.0, 12.0 ] ] ] } },
{ "type": "Feature", "properties": { "grid_lat": 21.0, "grid_lon": 82.0, "event_count": 4 }, "geometry": { "type": "Polygon", "coordinates": [ [ [ 83.0, 21.0 ], [ 83.0, 22.0 ], [ 82.0, 22.0 ], [ 82.0, 21.0 ], [ 83.0, 21.0 ] ] ] } },
{ "type": "Feature", "properties": { "grid_lat": 23.0, "grid_lon": 68.0, "event_count": 4 }, "geometry": { "type": "Polygon", "coordinates": [ [ [ 69.0, 23.0 ], [ 69.0, 24.0 ], [ 68.0, 24.0 ], [ 68.0, 23.0 ], [ 69.0, 23.0 ] ] ] } },
{ "type": "Feature", "properties": { "grid_lat": 20.0, "grid_lon": 78.0, "event_count": 4 }, "geometry": { "type": "Polygon", "coordinates": [ [ [ 79.0, 20.0 ], [ 79.0, 21.0 ], [ 78.0, 21.0 ], [ 78.0, 20.0 ], [ 79.0, 20.0 ] ] ] } },
{ "type": "Feature", "properties": { "grid_lat": 20.0, "grid_lon": 71.0, "event_count": 4 }, "geometry": { "type": "Polygon", "coordinates": [ [ [ 72.0, 20.0 ], [ 72.0, 21.0 ], [ 71.0, 21.0 ], [ 71.0, 20.0 ], [ 72.0, 20.0 ] ] ] } },
{ "type": "Feature", "properties": { "grid_lat": 23.0, "grid_lon": 82.0, "event_count": 4 }, "geometry": { "type": "Polygon", "coordinates": [ [ [ 83.0, 23.0 ], [ 83.0, 24.0 ], [ 82.0, 24.0 ], [ 82.0, 23.0 ], [ 83.0, 23.0 ] ] ] } },
{ "type": "Feature", "properties": { "grid_lat": 29.0, "grid_lon": 74.0, "event_count": 4 }, "geometry": { "type": "Polygon", "coordinates": [ [ [ 75.0, 29.0 ], [ 75.0, 30.0 ], [ 74.0, 30.0 ], [ 74.0, 29.0 ], [ 75.0, 29.0 ] ] ] } },
{ "type": "Feature", "properties": { "grid_lat": 19.0, "grid_lon": 79.0, "event_count": 4 }, "geometry": { "type": "Polygon", "coordinates": [ [ [ 80.0, 19.0 ], [ 80.0, 20.0 ], [ 79.0, 20.0 ], [ 79.0, 19.0 ], [ 80.0, 19.0 ] ] ] } },
{ "type": "Feature", "properties": { "grid_lat": 22.0, "grid_lon": 88.0, "event_count": 4 }, "geometry": { "type": "Polygon", "coordinates": [ [ [ 89.0, 22.0 ], [ 89.0, 23.0 ], [ 88.0, 23.0 ], [ 88.0, 22.0 ], [ 89.0, 22.0 ] ] ] } },
{ "type": "Feature", "properties": { "grid_lat": 16.0, "grid_lon": 80.0, "event_count": 4 }, "geometry": { "type": "Polygon", "coordinates": [ [ [ 81.0, 16.0 ], [ 81.0, 17.0 ], [ 80.0, 17.0 ], [ 80.0, 16.0 ], [ 81.0, 16.0 ] ] ] } },
{ "type": "Feature", "properties": { "grid_lat": 31.0, "grid_lon": 74.0, "event_count": 3 }, "geometry": { "type": "Polygon", "coordinates": [ [ [ 75.0, 31.0 ], [ 75.0, 32.0 ], [ 74.0, 32.0 ], [ 74.0, 31.0 ], [ 75.0, 31.0 ] ] ] } },
{ "type": "Feature", "properties": { "grid_lat": 27.0, "grid_lon": 73.0, "event_count": 3 }, "geometry": { "type": "Polygon", "coordinates": [ [ [ 74.0, 27.0 ], [ 74.0, 28.0 ], [ 73.0, 28.0 ], [ 73.0, 27.0 ], [ 74.0, 27.0 ] ] ] } },
{ "type": "Feature", "properties": { "grid_lat": 27.0, "grid_lon": 70.0, "event_count": 3 }, "geometry": { "type": "Polygon", "coordinates": [ [ [ 71.0, 27.0 ], [ 71.0, 28.0 ], [ 70.0, 28.0 ], [ 70.0, 27.0 ], [ 71.0, 27.0 ] ] ] } },
{ "type": "Feature", "properties": { "grid_lat": 24.0, "grid_lon": 86.0, "event_count": 3 }, "geometry": { "type": "Polygon", "coordinates": [ [ [ 87.0, 24.0 ], [ 87.0, 25.0 ], [ 86.0, 25.0 ], [ 86.0, 24.0 ], [ 87.0, 24.0 ] ] ] } },
{ "type": "Feature", "properties": { "grid_lat": 31.0, "grid_lon": 76.0, "event_count": 3 }, "geometry": { "type": "Polygon", "coordinates": [ [ [ 77.0, 31.0 ], [ 77.0, 32.0 ], [ 76.0, 32.0 ], [ 76.0, 31.0 ], [ 77.0, 31.0 ] ] ] } },
{ "type": "Feature", "properties": { "grid_lat": 28.0, "grid_lon": 76.0, "event_count": 3 }, "geometry": { "type": "Polygon", "coordinates": [ [ [ 77.0, 28.0 ], [ 77.0, 29.0 ], [ 76.0, 29.0 ], [ 76.0, 28.0 ], [ 77.0, 28.0 ] ] ] } },
{ "type": "Feature", "properties": { "grid_lat": 21.0, "grid_lon": 79.0, "event_count": 3 }, "geometry": { "type": "Polygon", "coordinates": [ [ [ 80.0, 21.0 ], [ 80.0, 22.0 ], [ 79.0, 22.0 ], [ 79.0, 21.0 ], [ 80.0, 21.0 ] ] ] } },
{ "type": "Feature", "properties": { "grid_lat": 17.0, "grid_lon": 81.0, "event_count": 3 }, "geometry": { "type": "Polygon", "coordinates": [ [ [ 82.0, 17.0 ], [ 82.0, 18.0 ], [ 81.0, 18.0 ], [ 81.0, 17.0 ], [ 82.0, 17.0 ] ] ] } },
{ "type": "Feature", "properties": { "grid_lat": 13.0, "grid_lon": 79.0, "event_count": 3 }, "geometry": { "type": "Polygon", "coordinates": [ [ [ 80.0, 13.0 ], [ 80.0, 14.0 ], [ 79.0, 14.0 ], [ 79.0, 13.0 ], [ 80.0, 13.0 ] ] ] } },
{ "type": "Feature", "properties": { "grid_lat": 12.0, "grid_lon": 77.0, "event_count": 3 }, "geometry": { "type": "Polygon", "coordinates": [ [ [ 78.0, 12.0 ], [ 78.0, 13.0 ], [ 77.0, 13.0 ], [ 77.0, 12.0 ], [ 78.0, 12.0 ] ] ] } },
{ "type": "Feature", "properties": { "grid_lat": 19.0, "grid_lon": 72.0, "event_count": 3 }, "geometry": { "type": "Polygon", "coordinates": [ [ [ 73.0, 19.0 ], [ 73.0, 20.0 ], [ 72.0, 20.0 ], [ 72.0, 19.0 ], [ 73.0, 19.0 ] ] ] } },
{ "type": "Feature", "properties": { "grid_lat": 13.0, "grid_lon": 80.0, "event_count": 3 }, "geometry": { "type": "Polygon", "coordinates": [ [ [ 81.0, 13.0 ], [ 81.0, 14.0 ], [ 80.0, 14.0 ], [ 80.0, 13.0 ], [ 81.0, 13.0 ] ] ] } },
{ "type": "Feature", "properties": { "grid_lat": 13.0, "grid_lon": 77.0, "event_count": 3 }, "geometry": { "type": "Polygon", "coordinates": [ [ [ 78.0, 13.0 ], [ 78.0, 14.0 ], [ 77.0, 14.0 ], [ 77.0, 13.0 ], [ 78.0, 13.0 ] ] ] } },
{ "type": "Feature", "properties": { "grid_lat": 19.0, "grid_lon": 73.0, "event_count": 2 }, "geometry": { "type": "Polygon", "coordinates": [ [ [ 74.0, 19.0 ], [ 74.0, 20.0 ], [ 73.0, 20.0 ], [ 73.0, 19.0 ], [ 74.0, 19.0 ] ] ] } },
{ "type": "Feature", "properties": { "grid_lat": 17.0, "grid_lon": 82.0, "event_count": 2 }, "geometry": { "type": "Polygon", "coordinates": [ [ [ 83.0, 17.0 ], [ 83.0, 18.0 ], [ 82.0, 18.0 ], [ 82.0, 17.0 ], [ 83.0, 17.0 ] ] ] } },
{ "type": "Feature", "properties": { "grid_lat": 10.0, "grid_lon": 76.0, "event_count": 2 }, "geometry": { "type": "Polygon", "coordinates": [ [ [ 77.0, 10.0 ], [ 77.0, 11.0 ], [ 76.0, 11.0 ], [ 76.0, 10.0 ], [ 77.0, 10.0 ] ] ] } },
{ "type": "Feature", "properties": { "grid_lat": 13.0, "grid_lon": 75.0, "event_count": 2 }, "geometry": { "type": "Polygon", "coordinates": [ [ [ 76.0, 13.0 ], [ 76.0, 14.0 ], [ 75.0, 14.0 ], [ 75.0, 13.0 ], [ 76.0, 13.0 ] ] ] } },
{ "type": "Feature", "properties": { "grid_lat": 11.0, "grid_lon": 76.0, "event_count": 2 }, "geometry": { "type": "Polygon", "coordinates": [ [ [ 77.0, 11.0 ], [ 77.0, 12.0 ], [ 76.0, 12.0 ], [ 76.0, 11.0 ], [ 77.0, 11.0 ] ] ] } },
{ "type": "Feature", "properties": { "grid_lat": 16.0, "grid_lon": 75.0, "event_count": 2 }, "geometry": { "type": "Polygon", "coordinates": [ [ [ 76.0, 16.0 ], [ 76.0, 17.0 ], [ 75.0, 17.0 ], [ 75.0, 16.0 ], [ 76.0, 16.0 ] ] ] } },
{ "type": "Feature", "properties": { "grid_lat": 17.0, "grid_lon": 76.0, "event_count": 2 }, "geometry": { "type": "Polygon", "coordinates": [ [ [ 77.0, 17.0 ], [ 77.0, 18.0 ], [ 76.0, 18.0 ], [ 76.0, 17.0 ], [ 77.0, 17.0 ] ] ] } },
{ "type": "Feature", "properties": { "grid_lat": 16.0, "grid_lon": 77.0, "event_count": 2 }, "geometry": { "type": "Polygon", "coordinates": [ [ [ 78.0, 16.0 ], [ 78.0, 17.0 ], [ 77.0, 17.0 ], [ 77.0, 16.0 ], [ 78.0, 16.0 ] ] ] } },
{ "type": "Feature", "properties": { "grid_lat": 18.0, "grid_lon": 83.0, "event_count": 2 }, "geometry": { "type": "Polygon", "coordinates": [ [ [ 84.0, 18.0 ], [ 84.0, 19.0 ], [ 83.0, 19.0 ], [ 83.0, 18.0 ], [ 84.0, 18.0 ] ] ] } },
{ "type": "Feature", "properties": { "grid_lat": 19.0, "grid_lon": 74.0, "event_count": 2 }, "geometry": { "type": "Polygon", "coordinates": [ [ [ 75.0, 19.0 ], [ 75.0, 20.0 ], [ 74.0, 20.0 ], [ 74.0, 19.0 ], [ 75.0, 19.0 ] ] ] } },
{ "type": "Feature", "properties": { "grid_lat": 16.0, "grid_lon": 78.0, "event_count": 2 }, "geometry": { "type": "Polygon", "coordinates": [ [ [ 79.0, 16.0 ], [ 79.0, 17.0 ], [ 78.0, 17.0 ], [ 78.0, 16.0 ], [ 79.0, 16.0 ] ] ] } },
{ "type": "Feature", "properties": { "grid_lat": 26.0, "grid_lon": 74.0, "event_count": 2 }, "geometry": { "type": "Polygon", "coordinates": [ [ [ 75.0, 26.0 ], [ 75.0, 27.0 ], [ 74.0, 27.0 ], [ 74.0, 26.0 ], [ 75.0, 26.0 ] ] ] } },
{ "type": "Feature", "properties": { "grid_lat": 21.0, "grid_lon": 86.0, "event_count": 2 }, "geometry": { "type": "Polygon", "coordinates": [ [ [ 87.0, 21.0 ], [ 87.0, 22.0 ], [ 86.0, 22.0 ], [ 86.0, 21.0 ], [ 87.0, 21.0 ] ] ] } },
{ "type": "Feature", "properties": { "grid_lat": 16.0, "grid_lon": 74.0, "event_count": 2 }, "geometry": { "type": "Polygon", "coordinates": [ [ [ 75.0, 16.0 ], [ 75.0, 17.0 ], [ 74.0, 17.0 ], [ 74.0, 16.0 ], [ 75.0, 16.0 ] ] ] } },
{ "type": "Feature", "properties": { "grid_lat": 26.0, "grid_lon": 90.0, "event_count": 2 }, "geometry": { "type": "Polygon", "coordinates": [ [ [ 91.0, 26.0 ], [ 91.0, 27.0 ], [ 90.0, 27.0 ], [ 90.0, 26.0 ], [ 91.0, 26.0 ] ] ] } },
{ "type": "Feature", "properties": { "grid_lat": 18.0, "grid_lon": 75.0, "event_count": 1 }, "geometry": { "type": "Polygon", "coordinates": [ [ [ 76.0, 18.0 ], [ 76.0, 19.0 ], [ 75.0, 19.0 ], [ 75.0, 18.0 ], [ 76.0, 18.0 ] ] ] } },
{ "type": "Feature", "properties": { "grid_lat": 17.0, "grid_lon": 78.0, "event_count": 1 }, "geometry": { "type": "Polygon", "coordinates": [ [ [ 79.0, 17.0 ], [ 79.0, 18.0 ], [ 78.0, 18.0 ], [ 78.0, 17.0 ], [ 79.0, 17.0 ] ] ] } },
{ "type": "Feature", "properties": { "grid_lat": 18.0, "grid_lon": 72.0, "event_count": 1 }, "geometry": { "type": "Polygon", "coordinates": [ [ [ 73.0, 18.0 ], [ 73.0, 19.0 ], [ 72.0, 19.0 ], [ 72.0, 18.0 ], [ 73.0, 18.0 ] ] ] } },
{ "type": "Feature", "properties": { "grid_lat": 11.0, "grid_lon": 80.0, "event_count": 1 }, "geometry": { "type": "Polygon", "coordinates": [ [ [ 81.0, 11.0 ], [ 81.0, 12.0 ], [ 80.0, 12.0 ], [ 80.0, 11.0 ], [ 81.0, 11.0 ] ] ] } },
{ "type": "Feature", "properties": { "grid_lat": 9.0, "grid_lon": 79.0, "event_count": 1 }, "geometry": { "type": "Polygon", "coordinates": [ [ [ 80.0, 9.0 ], [ 80.0, 10.0 ], [ 79.0, 10.0 ], [ 79.0, 9.0 ], [ 80.0, 9.0 ] ] ] } },
{ "type": "Feature", "properties": { "grid_lat": 9.0, "grid_lon": 76.0, "event_count": 1 }, "geometry": { "type": "Polygon", "coordinates": [ [ [ 77.0, 9.0 ], [ 77.0, 10.0 ], [ 76.0, 10.0 ], [ 76.0, 9.0 ], [ 77.0, 9.0 ] ] ] } },
{ "type": "Feature", "properties": { "grid_lat": 17.0, "grid_lon": 75.0, "event_count": 1 }, "geometry": { "type": "Polygon", "coordinates": [ [ [ 76.0, 17.0 ], [ 76.0, 18.0 ], [ 75.0, 18.0 ], [ 75.0, 17.0 ], [ 76.0, 17.0 ] ] ] } },
{ "type": "Feature", "properties": { "grid_lat": 15.0, "grid_lon": 80.0, "event_count": 1 }, "geometry": { "type": "Polygon", "coordinates": [ [ [ 81.0, 15.0 ], [ 81.0, 16.0 ], [ 80.0, 16.0 ], [ 80.0, 15.0 ], [ 81.0, 15.0 ] ] ] } },
{ "type": "Feature", "properties": { "grid_lat": 15.0, "grid_lon": 75.0, "event_count": 1 }, "geometry": { "type": "Polygon", "coordinates": [ [ [ 76.0, 15.0 ], [ 76.0, 16.0 ], [ 75.0, 16.0 ], [ 75.0, 15.0 ], [ 76.0, 15.0 ] ] ] } },
{ "type": "Feature", "properties": { "grid_lat": 12.0, "grid_lon": 74.0, "event_count": 1 }, "geometry": { "type": "Polygon", "coordinates": [ [ [ 75.0, 12.0 ], [ 75.0, 13.0 ], [ 74.0, 13.0 ], [ 74.0, 12.0 ], [ 75.0, 12.0 ] ] ] } },
{ "type": "Feature", "properties": { "grid_lat": 14.0, "grid_lon": 80.0, "event_count": 1 }, "geometry": { "type": "Polygon", "coordinates": [ [ [ 81.0, 14.0 ], [ 81.0, 15.0 ], [ 80.0, 15.0 ], [ 80.0, 14.0 ], [ 81.0, 14.0 ] ] ] } },
{ "type": "Feature", "properties": { "grid_lat": 23.0, "grid_lon": 69.0, "event_count": 1 }, "geometry": { "type": "Polygon", "coordinates": [ [ [ 70.0, 23.0 ], [ 70.0, 24.0 ], [ 69.0, 24.0 ], [ 69.0, 23.0 ], [ 70.0, 23.0 ] ] ] } },
{ "type": "Feature", "properties": { "grid_lat": 21.0, "grid_lon": 87.0, "event_count": 1 }, "geometry": { "type": "Polygon", "coordinates": [ [ [ 88.0, 21.0 ], [ 88.0, 22.0 ], [ 87.0, 22.0 ], [ 87.0, 21.0 ], [ 88.0, 21.0 ] ] ] } },
{ "type": "Feature", "properties": { "grid_lat": 22.0, "grid_lon": 75.0, "event_count": 1 }, "geometry": { "type": "Polygon", "coordinates": [ [ [ 76.0, 22.0 ], [ 76.0, 23.0 ], [ 75.0, 23.0 ], [ 75.0, 22.0 ], [ 76.0, 22.0 ] ] ] } },
{ "type": "Feature", "properties": { "grid_lat": 22.0, "grid_lon": 72.0, "event_count": 1 }, "geometry": { "type": "Polygon", "coordinates": [ [ [ 73.0, 22.0 ], [ 73.0, 23.0 ], [ 72.0, 23.0 ], [ 72.0, 22.0 ], [ 73.0, 22.0 ] ] ] } },
{ "type": "Feature", "properties": { "grid_lat": 20.0, "grid_lon": 70.0, "event_count": 1 }, "geometry": { "type": "Polygon", "coordinates": [ [ [ 71.0, 20.0 ], [ 71.0, 21.0 ], [ 70.0, 21.0 ], [ 70.0, 20.0 ], [ 71.0, 20.0 ] ] ] } },
{ "type": "Feature", "properties": { "grid_lat": 20.0, "grid_lon": 72.0, "event_count": 1 }, "geometry": { "type": "Polygon", "coordinates": [ [ [ 73.0, 20.0 ], [ 73.0, 21.0 ], [ 72.0, 21.0 ], [ 72.0, 20.0 ], [ 73.0, 20.0 ] ] ] } },
{ "type": "Feature", "properties": { "grid_lat": 23.0, "grid_lon": 71.0, "event_count": 1 }, "geometry": { "type": "Polygon", "coordinates": [ [ [ 72.0, 23.0 ], [ 72.0, 24.0 ], [ 71.0, 24.0 ], [ 71.0, 23.0 ], [ 72.0, 23.0 ] ] ] } },
{ "type": "Feature", "properties": { "grid_lat": 24.0, "grid_lon": 74.0, "event_count": 1 }, "geometry": { "type": "Polygon", "coordinates": [ [ [ 75.0, 24.0 ], [ 75.0, 25.0 ], [ 74.0, 25.0 ], [ 74.0, 24.0 ], [ 75.0, 24.0 ] ] ] } },
{ "type": "Feature", "properties": { "grid_lat": 26.0, "grid_lon": 83.0, "event_count": 1 }, "geometry": { "type": "Polygon", "coordinates": [ [ [ 84.0, 26.0 ], [ 84.0, 27.0 ], [ 83.0, 27.0 ], [ 83.0, 26.0 ], [ 84.0, 26.0 ] ] ] } },
{ "type": "Feature", "properties": { "grid_lat": 25.0, "grid_lon": 73.0, "event_count": 1 }, "geometry": { "type": "Polygon", "coordinates": [ [ [ 74.0, 25.0 ], [ 74.0, 26.0 ], [ 73.0, 26.0 ], [ 73.0, 25.0 ], [ 74.0, 25.0 ] ] ] } },
{ "type": "Feature", "properties": { "grid_lat": 26.0, "grid_lon": 94.0, "event_count": 1 }, "geometry": { "type": "Polygon", "coordinates": [ [ [ 95.0, 26.0 ], [ 95.0, 27.0 ], [ 94.0, 27.0 ], [ 94.0, 26.0 ], [ 95.0, 26.0 ] ] ] } },
{ "type": "Feature", "properties": { "grid_lat": 26.0, "grid_lon": 91.0, "event_count": 1 }, "geometry": { "type": "Polygon", "coordinates": [ [ [ 92.0, 26.0 ], [ 92.0, 27.0 ], [ 91.0, 27.0 ], [ 91.0, 26.0 ], [ 92.0, 26.0 ] ] ] } },
{ "type": "Feature", "properties": { "grid_lat": 27.0, "grid_lon": 75.0, "event_count": 1 }, "geometry": { "type": "Polygon", "coordinates": [ [ [ 76.0, 27.0 ], [ 76.0, 28.0 ], [ 75.0, 28.0 ], [ 75.0, 27.0 ], [ 76.0, 27.0 ] ] ] } },
{ "type": "Feature", "properties": { "grid_lat": 27.0, "grid_lon": 76.0, "event_count": 1 }, "geometry": { "type": "Polygon", "coordinates": [ [ [ 77.0, 27.0 ], [ 77.0, 28.0 ], [ 76.0, 28.0 ], [ 76.0, 27.0 ], [ 77.0, 27.0 ] ] ] } },
{ "type": "Feature", "properties": { "grid_lat": 31.0, "grid_lon": 75.0, "event_count": 1 }, "geometry": { "type": "Polygon", "coordinates": [ [ [ 76.0, 31.0 ], [ 76.0, 32.0 ], [ 75.0, 32.0 ], [ 75.0, 31.0 ], [ 76.0, 31.0 ] ] ] } },
{ "type": "Feature", "properties": { "grid_lat": 31.0, "grid_lon": 78.0, "event_count": 1 }, "geometry": { "type": "Polygon", "coordinates": [ [ [ 79.0, 31.0 ], [ 79.0, 32.0 ], [ 78.0, 32.0 ], [ 78.0, 31.0 ], [ 79.0, 31.0 ] ] ] } }
]
}
