{
"type": "FeatureCollection",
"name": "osm_15.1_76.6",
"crs": { "type": "name", "properties": { "name": "urn:ogc:def:crs:OGC:1.3:CRS84" } },
"features": [
{ "type": "Feature", "properties": { "element": "node", "id": 7680713697, "generator:method": "combustion", "generator:output:electricity": "300 MW", "generator:source": "coal", "generator:type": "steam_turbine", "power": "generator", "industrial": null, "landuse": null, "man_made": null, "name": null, "name:kn": null, "building": null, "operator": null, "plant:method": null, "plant:output:electricity": null, "plant:source": null, "wikidata": null }, "geometry": { "type": "Point", "coordinates": [ 76.6642177, 15.1878208 ] } },
{ "type": "Feature", "properties": { "element": "node", "id": 7680713698, "generator:method": "combustion", "generator:output:electricity": "300 MW", "generator:source": "coal", "generator:type": "steam_turbine", "power": "generator", "industrial": null, "landuse": null, "man_made": null, "name": null, "name:kn": null, "building": null, "operator": null, "plant:method": null, "plant:output:electricity": null, "plant:source": null, "wikidata": null }, "geometry": { "type": "Point", "coordinates": [ 76.6638529, 15.1871271 ] } },
{ "type": "Feature", "properties": { "element": "node", "id": 7680713699, "generator:method": "combustion", "generator:output:electricity": "300 MW", "generator:source": "coal", "generator:type": "steam_turbine", "power": "generator", "industrial": null, "landuse": null, "man_made": null, "name": null, "name:kn": null, "building": null, "operator": null, "plant:method": null, "plant:output:electricity": null, "plant:source": null, "wikidata": null }, "geometry": { "type": "Point", "coordinates": [ 76.6634238, 15.1863506 ] } },
{ "type": "Feature", "properties": { "element": "node", "id": 7680713700, "generator:method": "combustion", "generator:output:electricity": "300 MW", "generator:source": "coal", "generator:type": "steam_turbine", "power": "generator", "industrial": null, "landuse": null, "man_made": null, "name": null, "name:kn": null, "building": null, "operator": null, "plant:method": null, "plant:output:electricity": null, "plant:source": null, "wikidata": null }, "geometry": { "type": "Point", "coordinates": [ 76.6630697, 15.185719 ] } },
{ "type": "Feature", "properties": { "element": "node", "id": 7680713701, "generator:method": "combustion", "generator:output:electricity": "130 MW", "generator:source": "coal", "generator:type": "steam_turbine", "power": "generator", "industrial": null, "landuse": null, "man_made": null, "name": null, "name:kn": null, "building": null, "operator": null, "plant:method": null, "plant:output:electricity": null, "plant:source": null, "wikidata": null }, "geometry": { "type": "Point", "coordinates": [ 76.6626942, 15.1849527 ] } },
{ "type": "Feature", "properties": { "element": "node", "id": 7680713702, "generator:method": "combustion", "generator:output:electricity": "130 MW", "generator:source": "coal", "generator:type": "steam_turbine", "power": "generator", "industrial": null, "landuse": null, "man_made": null, "name": null, "name:kn": null, "building": null, "operator": null, "plant:method": null, "plant:output:electricity": null, "plant:source": null, "wikidata": null }, "geometry": { "type": "Point", "coordinates": [ 76.6624582, 15.1845075 ] } },
{ "type": "Feature", "properties": { "element": "way", "id": 285680302, "generator:method": null, "generator:output:electricity": null, "generator:source": null, "generator:type": null, "power": null, "industrial": "steel_mill", "landuse": "industrial", "man_made": "works", "name": "Jindal Steel Works", "name:kn": "ಜಿಂದಾಲ್ ಉಕ್ಕು ಕಾರ್ಖಾನೆ", "building": null, "operator": null, "plant:method": null, "plant:output:electricity": null, "plant:source": null, "wikidata": null }, "geometry": { "type": "Polygon", "coordinates": [ [ [ 76.6498124, 15.2004177 ], [ 76.6382356, 15.1893202 ], [ 76.6383696, 15.1891036 ], [ 76.638197, 15.1888258 ], [ 76.6377584, 15.1888712 ], [ 76.6295313, 15.1810196 ], [ 76.6498302, 15.1689708 ], [ 76.6601565, 15.1630612 ], [ 76.660755, 15.1629941 ], [ 76.661243, 15.1632167 ], [ 76.662261, 15.1635391 ], [ 76.6636759, 15.163886 ], [ 76.6655103, 15.1645837 ], [ 76.6657493, 15.1646782 ], [ 76.6666169, 15.1652412 ], [ 76.6674274, 15.1656961 ], [ 76.6676831, 15.165825 ], [ 76.6683596, 15.1659245 ], [ 76.6693635, 15.1656593 ], [ 76.6704712, 15.1653568 ], [ 76.6710372, 15.1652464 ], [ 76.6718571, 15.1651675 ], [ 76.672719, 15.1651092 ], [ 76.6733922, 15.1651454 ], [ 76.6741244, 15.1651687 ], [ 76.674891, 15.1651334 ], [ 76.6756091, 15.1651869 ], [ 76.6761991, 15.1652917 ], [ 76.6767196, 15.165391 ], [ 76.6778916, 15.1656981 ], [ 76.6789006, 15.1660053 ], [ 76.6815931, 15.167034 ], [ 76.6828161, 15.1673964 ], [ 76.6843718, 15.1680643 ], [ 76.6867128, 15.1687171 ], [ 76.6877943, 15.1693224 ], [ 76.6888317, 15.1699804 ], [ 76.6896611, 15.1705598 ], [ 76.6900098, 15.1707514 ], [ 76.6903049, 15.1707618 ], [ 76.6909432, 15.1708757 ], [ 76.6926223, 15.1715953 ], [ 76.6928958, 15.1716434 ], [ 76.6935074, 15.1717144 ], [ 76.6946607, 15.1717107 ], [ 76.6957927, 15.1715487 ], [ 76.6963774, 15.1714297 ], [ 76.6972464, 15.1710931 ], [ 76.6982067, 15.1709999 ], [ 76.6984051, 15.1709274 ], [ 76.6990595, 15.1705924 ], [ 76.7002666, 15.1702647 ], [ 76.702112, 15.1694674 ], [ 76.7043677, 15.1686934 ], [ 76.7053573, 15.1669888 ], [ 76.7056632, 15.1663919 ], [ 76.7056471, 15.1657965 ], [ 76.7056552, 15.1656024 ], [ 76.7056096, 15.1654626 ], [ 76.7051831, 15.164937 ], [ 76.7052394, 15.1648801 ], [ 76.706146, 15.1648749 ], [ 76.7072591, 15.1648723 ], [ 76.7077821, 15.1650147 ], [ 76.7082784, 15.1651338 ], [ 76.7092788, 15.1671893 ], [ 76.7080878, 15.1697329 ], [ 76.7072295, 15.170727 ], [ 76.7068862, 15.1723838 ], [ 76.706972, 15.1747033 ], [ 76.7070578, 15.1759458 ], [ 76.7060407, 15.1764677 ], [ 76.7049249, 15.1767162 ], [ 76.7034529, 15.1785138 ], [ 76.7034529, 15.179922 ], [ 76.7028521, 15.1813302 ], [ 76.7017363, 15.1840637 ], [ 76.7025217, 15.1854139 ], [ 76.6890334, 15.19185 ], [ 76.6803774, 15.1930345 ], [ 76.6777037, 15.1925955 ], [ 76.675558, 15.1888681 ], [ 76.6701555, 15.1919991 ], [ 76.6648777, 15.1943685 ], [ 76.664578, 15.1941841 ], [ 76.6640019, 15.1944913 ], [ 76.6640386, 15.1947247 ], [ 76.6504356, 15.2005792 ], [ 76.6498124, 15.2004177 ] ] ] } },
{ "type": "Feature", "properties": { "element": "way", "id": 666448093, "generator:method": null, "generator:output:electricity": null, "generator:source": null, "generator:type": null, "power": null, "industrial": "cooling", "landuse": null, "man_made": null, "name": null, "name:kn": null, "building": "industrial", "operator": null, "plant:method": null, "plant:output:electricity": null, "plant:source": null, "wikidata": null }, "geometry": { "type": "Polygon", "coordinates": [ [ [ 76.6615529, 15.1709119 ], [ 76.6616616, 15.170943 ], [ 76.6616845, 15.1708683 ], [ 76.6615759, 15.1708372 ], [ 76.6615529, 15.1709119 ] ] ] } },
{ "type": "Feature", "properties": { "element": "way", "id": 666448095, "generator:method": null, "generator:output:electricity": null, "generator:source": null, "generator:type": null, "power": null, "industrial": null, "landuse": null, "man_made": "gasometer", "name": null, "name:kn": null, "building": null, "operator": null, "plant:method": null, "plant:output:electricity": null, "plant:source": null, "wikidata": null }, "geometry": { "type": "Polygon", "coordinates": [ [ [ 76.6610153, 15.1701646 ], [ 76.6609874, 15.1701714 ], [ 76.6609605, 15.1701812 ], [ 76.6609351, 15.1701941 ], [ 76.6609114, 15.1702098 ], [ 76.6608897, 15.170228 ], [ 76.6608705, 15.1702486 ], [ 76.6608539, 15.1702713 ], [ 76.6608403, 15.1702957 ], [ 76.6608297, 15.1703215 ], [ 76.6608223, 15.1703483 ], [ 76.6608183, 15.1703758 ], [ 76.6608177, 15.1704035 ], [ 76.6608205, 15.1704311 ], [ 76.6608266, 15.1704582 ], [ 76.660836, 15.1704844 ], [ 76.6608486, 15.1705093 ], [ 76.6608641, 15.1705327 ], [ 76.6608824, 15.1705541 ], [ 76.6609032, 15.1705732 ], [ 76.6609262, 15.1705899 ], [ 76.6609511, 15.1706038 ], [ 76.6609774, 15.1706148 ], [ 76.661005, 15.1706227 ], [ 76.6610333, 15.1706274 ], [ 76.661062, 15.1706288 ], [ 76.6610907, 15.1706269 ], [ 76.6611189, 15.1706218 ], [ 76.6611464, 15.1706135 ], [ 76.6611726, 15.1706021 ], [ 76.6611972, 15.1705878 ], [ 76.6612199, 15.1705708 ], [ 76.6612403, 15.1705513 ], [ 76.6612583, 15.1705296 ], [ 76.6612734, 15.1705061 ], [ 76.6612856, 15.1704809 ], [ 76.6612945, 15.1704546 ], [ 76.6613002, 15.1704274 ], [ 76.6613026, 15.1703997 ], [ 76.6613015, 15.170372 ], [ 76.661297, 15.1703446 ], [ 76.6612892, 15.1703179 ], [ 76.6612782, 15.1702923 ], [ 76.6612641, 15.1702681 ], [ 76.6612472, 15.1702457 ], [ 76.6612276, 15.1702254 ], [ 76.6612057, 15.1702075 ], [ 76.6611817, 15.1701922 ], [ 76.6611561, 15.1701797 ], [ 76.661129, 15.1701703 ], [ 76.6611011, 15.170164 ], [ 76.6610725, 15.1701609 ], [ 76.6610438, 15.1701611 ], [ 76.6610153, 15.1701646 ] ] ] } },
{ "type": "Feature", "properties": { "element": "way", "id": 666448099, "generator:method": null, "generator:output:electricity": null, "generator:source": null, "generator:type": null, "power": null, "industrial": "cooling", "landuse": null, "man_made": null, "name": null, "name:kn": null, "building": "industrial", "operator": null, "plant:method": null, "plant:output:electricity": null, "plant:source": null, "wikidata": null }, "geometry": { "type": "Polygon", "coordinates": [ [ [ 76.6619968, 15.1729415 ], [ 76.6621075, 15.1729709 ], [ 76.6621505, 15.1728208 ], [ 76.6620398, 15.1727913 ], [ 76.6619968, 15.1729415 ] ] ] } },
{ "type": "Feature", "properties": { "element": "way", "id": 666448100, "generator:method": null, "generator:output:electricity": null, "generator:source": null, "generator:type": null, "power": null, "industrial": "cooling", "landuse": null, "man_made": null, "name": null, "name:kn": null, "building": "industrial", "operator": null, "plant:method": null, "plant:output:electricity": null, "plant:source": null, "wikidata": null }, "geometry": { "type": "Polygon", "coordinates": [ [ [ 76.6549265, 15.1710362 ], [ 76.6550496, 15.1712464 ], [ 76.6555431, 15.1709771 ], [ 76.6554201, 15.170767 ], [ 76.6549265, 15.1710362 ] ] ] } },
{ "type": "Feature", "properties": { "element": "way", "id": 666448101, "generator:method": null, "generator:output:electricity": null, "generator:source": null, "generator:type": null, "power": null, "industrial": "cooling", "landuse": null, "man_made": null, "name": null, "name:kn": null, "building": "industrial", "operator": null, "plant:method": null, "plant:output:electricity": null, "plant:source": null, "wikidata": null }, "geometry": { "type": "Polygon", "coordinates": [ [ [ 76.6563427, 15.1718232 ], [ 76.6564115, 15.1719451 ], [ 76.657023, 15.1716241 ], [ 76.6569543, 15.1715021 ], [ 76.6563427, 15.1718232 ] ] ] } },
{ "type": "Feature", "properties": { "element": "way", "id": 666448106, "generator:method": null, "generator:output:electricity": null, "generator:source": null, "generator:type": null, "power": null, "industrial": "cooling", "landuse": null, "man_made": null, "name": null, "name:kn": null, "building": "industrial", "operator": null, "plant:method": null, "plant:output:electricity": null, "plant:source": null, "wikidata": null }, "geometry": { "type": "Polygon", "coordinates": [ [ [ 76.6359204, 15.1849268 ], [ 76.636049, 15.1851507 ], [ 76.6364942, 15.1849126 ], [ 76.6363656, 15.1846887 ], [ 76.6359204, 15.1849268 ] ] ] } },
{ "type": "Feature", "properties": { "element": "way", "id": 666448108, "generator:method": null, "generator:output:electricity": null, "generator:source": null, "generator:type": null, "power": null, "industrial": null, "landuse": null, "man_made": "gasometer", "name": null, "name:kn": null, "building": null, "operator": null, "plant:method": null, "plant:output:electricity": null, "plant:source": null, "wikidata": null }, "geometry": { "type": "Polygon", "coordinates": [ [ [ 76.6377034, 15.1827426 ], [ 76.6376714, 15.1827579 ], [ 76.6376421, 15.1827776 ], [ 76.6376161, 15.1828011 ], [ 76.6375939, 15.1828281 ], [ 76.637576, 15.1828579 ], [ 76.6375628, 15.1828899 ], [ 76.6375546, 15.1829234 ], [ 76.6375515, 15.1829577 ], [ 76.6375536, 15.1829921 ], [ 76.6375609, 15.1830258 ], [ 76.6375732, 15.1830581 ], [ 76.6375903, 15.1830884 ], [ 76.6376117, 15.1831159 ], [ 76.637637, 15.1831401 ], [ 76.6376658, 15.1831605 ], [ 76.6376973, 15.1831767 ], [ 76.6377309, 15.1831883 ], [ 76.6377659, 15.183195 ], [ 76.6378015, 15.1831967 ], [ 76.637837, 15.1831934 ], [ 76.6378717, 15.1831851 ], [ 76.6379047, 15.1831721 ], [ 76.6379354, 15.1831546 ], [ 76.6379631, 15.1831329 ], [ 76.6379873, 15.1831076 ], [ 76.6380074, 15.1830791 ], [ 76.638023, 15.1830481 ], [ 76.6380337, 15.1830153 ], [ 76.6380394, 15.1829813 ], [ 76.6380399, 15.1829469 ], [ 76.6380351, 15.1829127 ], [ 76.6380253, 15.1828796 ], [ 76.6380106, 15.1828483 ], [ 76.6379913, 15.1828193 ], [ 76.6379679, 15.1827933 ], [ 76.6379408, 15.1827709 ], [ 76.6379106, 15.1827526 ], [ 76.6378779, 15.1827387 ], [ 76.6378435, 15.1827296 ], [ 76.6378081, 15.1827253 ], [ 76.6377725, 15.1827261 ], [ 76.6377373, 15.1827319 ], [ 76.6377034, 15.1827426 ] ] ] } },
{ "type": "Feature", "properties": { "element": "way", "id": 666448109, "generator:method": null, "generator:output:electricity": null, "generator:source": null, "generator:type": null, "power": null, "industrial": "cooling", "landuse": null, "man_made": null, "name": null, "name:kn": null, "building": "industrial", "operator": null, "plant:method": null, "plant:output:electricity": null, "plant:source": null, "wikidata": null }, "geometry": { "type": "Polygon", "coordinates": [ [ [ 76.6405284, 15.1850511 ], [ 76.6406625, 15.1852841 ], [ 76.6407782, 15.185222 ], [ 76.6406441, 15.1849891 ], [ 76.6405284, 15.1850511 ] ] ] } },
{ "type": "Feature", "properties": { "element": "way", "id": 666448110, "generator:method": null, "generator:output:electricity": null, "generator:source": null, "generator:type": null, "power": null, "industrial": "cooling", "landuse": null, "man_made": null, "name": null, "name:kn": null, "building": "industrial", "operator": null, "plant:method": null, "plant:output:electricity": null, "plant:source": null, "wikidata": null }, "geometry": { "type": "Polygon", "coordinates": [ [ [ 76.6406625, 15.1839691 ], [ 76.640732, 15.1840907 ], [ 76.6409948, 15.1839509 ], [ 76.6409254, 15.1838293 ], [ 76.6406625, 15.1839691 ] ] ] } },
{ "type": "Feature", "properties": { "element": "way", "id": 666448111, "generator:method": null, "generator:output:electricity": null, "generator:source": null, "generator:type": null, "power": null, "industrial": "cooling", "landuse": null, "man_made": null, "name": null, "name:kn": null, "building": "industrial", "operator": null, "plant:method": null, "plant:output:electricity": null, "plant:source": null, "wikidata": null }, "geometry": { "type": "Polygon", "coordinates": [ [ [ 76.6401637, 15.1842797 ], [ 76.6402374, 15.1844093 ], [ 76.640511, 15.1842644 ], [ 76.6404372, 15.1841347 ], [ 76.6401637, 15.1842797 ] ] ] } },
{ "type": "Feature", "properties": { "element": "way", "id": 666448112, "generator:method": null, "generator:output:electricity": null, "generator:source": null, "generator:type": null, "power": null, "industrial": "cooling", "landuse": null, "man_made": null, "name": null, "name:kn": null, "building": "industrial", "operator": null, "plant:method": null, "plant:output:electricity": null, "plant:source": null, "wikidata": null }, "geometry": { "type": "Polygon", "coordinates": [ [ [ 76.6533065, 15.177394 ], [ 76.6533756, 15.1775146 ], [ 76.6538799, 15.1772454 ], [ 76.6538107, 15.1771248 ], [ 76.6533065, 15.177394 ] ] ] } },
{ "type": "Feature", "properties": { "element": "way", "id": 666448113, "generator:method": null, "generator:output:electricity": null, "generator:source": null, "generator:type": null, "power": null, "industrial": "cooling", "landuse": null, "man_made": null, "name": null, "name:kn": null, "building": "industrial", "operator": null, "plant:method": null, "plant:output:electricity": null, "plant:source": null, "wikidata": null }, "geometry": { "type": "Polygon", "coordinates": [ [ [ 76.6532743, 15.1778496 ], [ 76.6533428, 15.1779695 ], [ 76.6541796, 15.1775243 ], [ 76.6541111, 15.1774044 ], [ 76.6532743, 15.1778496 ] ] ] } },
{ "type": "Feature", "properties": { "element": "way", "id": 666448114, "generator:method": null, "generator:output:electricity": null, "generator:source": null, "generator:type": null, "power": null, "industrial": "cooling", "landuse": null, "man_made": null, "name": null, "name:kn": null, "building": "industrial", "operator": null, "plant:method": null, "plant:output:electricity": null, "plant:source": null, "wikidata": null }, "geometry": { "type": "Polygon", "coordinates": [ [ [ 76.6595828, 15.1745775 ], [ 76.659733, 15.1745051 ], [ 76.6596258, 15.174298 ], [ 76.6594756, 15.1743704 ], [ 76.6595828, 15.1745775 ] ] ] } },
{ "type": "Feature", "properties": { "element": "way", "id": 666448115, "generator:method": null, "generator:output:electricity": null, "generator:source": null, "generator:type": null, "power": null, "industrial": "cooling", "landuse": null, "man_made": null, "name": null, "name:kn": null, "building": "industrial", "operator": null, "plant:method": null, "plant:output:electricity": null, "plant:source": null, "wikidata": null }, "geometry": { "type": "Polygon", "coordinates": [ [ [ 76.6669214, 15.1714193 ], [ 76.6668735, 15.1715741 ], [ 76.6674851, 15.1717502 ], [ 76.6675329, 15.1715953 ], [ 76.6669214, 15.1714193 ] ] ] } },
{ "type": "Feature", "properties": { "element": "way", "id": 666448116, "generator:method": null, "generator:output:electricity": null, "generator:source": null, "generator:type": null, "power": null, "industrial": "cooling", "landuse": null, "man_made": null, "name": null, "name:kn": null, "building": "industrial", "operator": null, "plant:method": null, "plant:output:electricity": null, "plant:source": null, "wikidata": null }, "geometry": { "type": "Polygon", "coordinates": [ [ [ 76.6670287, 15.1682818 ], [ 76.6669748, 15.1684498 ], [ 76.6675649, 15.1686259 ], [ 76.6676187, 15.1684578 ], [ 76.6670287, 15.1682818 ] ] ] } },
{ "type": "Feature", "properties": { "element": "way", "id": 666448126, "generator:method": null, "generator:output:electricity": null, "generator:source": null, "generator:type": null, "power": null, "industrial": "cooling", "landuse": null, "man_made": null, "name": null, "name:kn": null, "building": "industrial", "operator": null, "plant:method": null, "plant:output:electricity": null, "plant:source": null, "wikidata": null }, "geometry": { "type": "Polygon", "coordinates": [ [ [ 76.6619968, 15.1737129 ], [ 76.662603, 15.1738734 ], [ 76.6626442, 15.1737285 ], [ 76.662038, 15.173568 ], [ 76.6619968, 15.1737129 ] ] ] } },
{ "type": "Feature", "properties": { "element": "way", "id": 666448127, "generator:method": null, "generator:output:electricity": null, "generator:source": null, "generator:type": null, "power": null, "industrial": "cooling", "landuse": null, "man_made": null, "name": null, "name:kn": null, "building": "industrial", "operator": null, "plant:method": null, "plant:output:electricity": null, "plant:source": null, "wikidata": null }, "geometry": { "type": "Polygon", "coordinates": [ [ [ 76.6660953, 15.1686908 ], [ 76.6663957, 15.1687684 ], [ 76.6664279, 15.1686521 ], [ 76.6661275, 15.1685745 ], [ 76.6660953, 15.1686908 ] ] ] } },
{ "type": "Feature", "properties": { "element": "way", "id": 666448128, "generator:method": null, "generator:output:electricity": null, "generator:source": null, "generator:type": null, "power": null, "industrial": "cooling", "landuse": null, "man_made": null, "name": null, "name:kn": null, "building": "industrial", "operator": null, "plant:method": null, "plant:output:electricity": null, "plant:source": null, "wikidata": null }, "geometry": { "type": "Polygon", "coordinates": [ [ [ 76.6622865, 15.1707669 ], [ 76.6625869, 15.1708394 ], [ 76.6626153, 15.1707298 ], [ 76.6623149, 15.1706573 ], [ 76.6622865, 15.1707669 ] ] ] } },
{ "type": "Feature", "properties": { "element": "way", "id": 666448129, "generator:method": null, "generator:output:electricity": null, "generator:source": null, "generator:type": null, "power": null, "industrial": "cooling", "landuse": null, "man_made": null, "name": null, "name:kn": null, "building": "industrial", "operator": null, "plant:method": null, "plant:output:electricity": null, "plant:source": null, "wikidata": null }, "geometry": { "type": "Polygon", "coordinates": [ [ [ 76.6630965, 15.1699541 ], [ 76.6637081, 15.1701042 ], [ 76.6637523, 15.1699364 ], [ 76.6631408, 15.1697863 ], [ 76.6630965, 15.1699541 ] ] ] } },
{ "type": "Feature", "properties": { "element": "way", "id": 822601316, "generator:method": null, "generator:output:electricity": null, "generator:source": null, "generator:type": null, "power": "plant", "industrial": null, "landuse": "industrial", "man_made": null, "name": "Vijayanagar Toranagallu Power Station", "name:kn": null, "building": null, "operator": "JSW Energy", "plant:method": "combustion", "plant:output:electricity": "860 MW", "plant:source": "coal", "wikidata": "Q16930658" }, "geometry": { "type": "Polygon", "coordinates": [ [ [ 76.6680425, 15.1827473 ], [ 76.66565, 15.1839898 ], [ 76.6630053, 15.1794649 ], [ 76.6613156, 15.1803658 ], [ 76.6627532, 15.1829906 ], [ 76.6593146, 15.1848388 ], [ 76.6626513, 15.1907096 ], [ 76.665709, 15.1889598 ], [ 76.6665029, 15.1901505 ], [ 76.6683644, 15.1892342 ], [ 76.6675544, 15.1878623 ], [ 76.6700596, 15.186335 ], [ 76.6680425, 15.1827473 ] ] ] } },
{ "type": "Feature", "properties": { "element": "way", "id": 1230631683, "generator:method": null, "generator:output:electricity": null, "generator:source": null, "generator:type": null, "power": null, "industrial": "mine", "landuse": "industrial", "man_made": null, "name": null, "name:kn": null, "building": null, "operator": null, "plant:method": null, "plant:output:electricity": null, "plant:source": null, "wikidata": null }, "geometry": { "type": "Polygon", "coordinates": [ [ [ 76.6823119, 15.1525794 ], [ 76.6818666, 15.1525069 ], [ 76.6816789, 15.1520668 ], [ 76.6818237, 15.1515128 ], [ 76.6821187, 15.1507102 ], [ 76.682505, 15.1500681 ], [ 76.6829449, 15.1495607 ], [ 76.6833686, 15.1496228 ], [ 76.6834008, 15.150384 ], [ 76.6833257, 15.1508396 ], [ 76.6829878, 15.1516577 ], [ 76.6826659, 15.1520409 ], [ 76.6824299, 15.1523153 ], [ 76.6823119, 15.1525794 ] ] ] } }
]
}
